SCD 1                   
1 22490U 93009B   26160.93837856  .00000357  00000+0  46967-4 0  9992
2 22490  24.9688 252.3360 0042146  61.4203 102.8997 14.46116343760068
TECHSAT 1B (GO-32)      
1 25397U 98043D   26160.96984413  .00000058  00000+0  45251-4 0  9992
2 25397  99.0065 153.5465 0000643 181.5466 178.5710 14.24427022450309
SCD 2                   
1 25504U 98060A   26161.18787752  .00000371  00000+0  52842-4 0  9995
2 25504  24.9942 115.3218 0016909  49.9238 346.0190 14.45523077459312
DLR-TUBSAT              
1 25757U 99029B   26161.26662519  .00000083  00000+0  32175-4 0  9990
2 25757  98.6694 156.5430 0014494  16.0558 344.1093 14.52425074432244
TERRA                   
1 25994U 99068A   26161.23984476  .00000316  00000+0  73348-4 0  9998
2 25994  97.9458 211.0613 0001066 220.2059 211.9075 14.61097506408590
MAROC-TUBSAT            
1 27004U 01056D   26161.23534681 -.00000016  00000+0  34156-4 0  9993
2 27004  99.8080 337.9640 0020110 158.7194  20.0720 13.70262148225239
AQUA                    
1 27424U 02022A   26161.28813824  .00000672  00000+0  14352-3 0  9999
2 27424  98.4274 130.4333 0001381  53.3609  54.1431 14.62147593282261
SHIYAN-1 (SY-1)         
1 28220U 04012A   26161.13720500  .00012839  00000+0  39770-3 0  9996
2 28220  97.8691 238.7483 0006179  55.6651 304.5174 15.33581738210014
AURA                    
1 28376U 04026A   26161.20741456  .00000668  00000+0  14505-3 0  9990
2 28376  98.3415 117.6031 0001299  71.8411 288.2931 14.61318484165195
IRS-P5 (CARTOSAT-1)     
1 28649U 05017A   26161.30029843  .00001118  00000+0  11833-3 0  9996
2 28649  97.5308 184.6772 0002652  89.2884 270.8638 14.91030884142797
SINAH 1                 
1 28893U 05043D   26161.28856636  .00000256  00000+0  58044-4 0  9999
2 28893  98.2851 295.5703 0013260 300.4848  59.5044 14.64153032 99515
RESURS-DK 1             
1 29228U 06021A   26160.96224564  .00002168  00000+0  12797-3 0  9990
2 29228  69.9339 358.2552 0006576 297.4803  62.5694 15.13185061101488
ARIRANG-2 (KOMPSAT-2)   
1 29268U 06031A   26161.33601916  .00000189  00000+0  43841-4 0  9993
2 29268  97.8313 346.1145 0015906  94.3080  27.1087 14.64655477 60470
LAPAN-TUBSAT            
1 29709U 07001A   26161.25117609  .00000076  00000+0  15282-4 0  9996
2 29709  98.1347 160.3191 0011333 202.6093 157.4624 14.85943106 50123
HAIYANG-1B              
1 31113U 07010A   26161.22270337  .00000080  00000+0  46156-4 0  9992
2 31113  98.3491 143.3381 0012612 217.9869 142.0427 14.31025139999637
COSMO-SKYMED 1          
1 31598U 07023A   26161.31754444  .00001944  00000+0  17386-3 0  9991
2 31598  97.8853 353.1166 0001027  84.7925 275.3414 14.97067663 28766
TERRASAR-X              
1 31698U 07026A   26160.28753291  .00000433  00000+0  23833-4 0  9996
2 31698  97.4448 168.1064 0001684  80.8129 279.3296 15.19149435 52027
WORLDVIEW-1 (WV-1)      
1 32060U 07041A   26161.20198051  .00005661  00000+0  23530-3 0  9998
2 32060  97.3863 281.0471 0002888  40.7888 319.3566 15.24189610 41817
YAOGAN-3                
1 32289U 07055A   26161.28102774  .00001658  00000+0  17439-3 0  9994
2 32289  97.8159 191.2271 0001796  86.2739 273.8685 14.90752928  4848
COSMO-SKYMED 2          
1 32376U 07059A   26161.27496049  .00000342  00000+0  49473-4 0  9998
2 32376  97.8885 344.9734 0001400  85.6888 274.4485 14.82149148   983
RADARSAT-2              
1 32382U 07061A   26161.32060853  .00000138  00000+0  70535-4 0  9990
2 32382  98.5783 168.3514 0001320  84.3431 275.7902 14.29983962964977
CARTOSAT-2A             
1 32783U 08021A   26161.28213363  .00000202  00000+0  33925-4 0  9997
2 32783  97.7637 210.2265 0012821 129.1700 231.0653 14.79226784977784
HUANJING 1A (HJ-1A)     
1 33320U 08041A   26161.28866999  .00000783  00000+0  99994-4 0  9998
2 33320  97.6683 147.3943 0019331 156.4459 203.7645 14.83970310957389
HUANJING 1B (HJ-1B)     
1 33321U 08041B   26161.25462306  .00000804  00000+0  10355-3 0  9997
2 33321  97.6519 150.5541 0035421 204.0904 155.8656 14.83304637957383
GEOEYE 1                
1 33331U 08042A   26161.25228802  .00000375  00000+0  79425-4 0  9997
2 33331  98.1235 235.2712 0005553  86.1431 274.0407 14.64719277949134
THEOS                   
1 33396U 08049A   26161.27555690  .00000179  00000+0  10380-3 0  9991
2 33396  98.5572 218.7834 0001243  79.5059 280.6258 14.20132901916987
COSMO-SKYMED 3          
1 33412U 08054A   26161.23739810  .00000528  00000+0  39751-4 0  9992
2 33412  97.8289  19.6930 0014374 293.1894  66.7818 15.06899762955896
YAOGAN-4                
1 33446U 08061A   26161.08345979  .00000849  00000+0  11046-3 0  9991
2 33446  97.9308  94.6463 0015765  93.4115 266.8902 14.83186411944611
GOSAT (IBUKI)           
1 33492U 09002A   26161.18377891  .00000996  00000+0  18406-3 0  9997
2 33492  98.0884 272.3529 0001582  88.8978 271.2408 14.67540776930434
DEIMOS-1                
1 35681U 09041A   26161.26800291  .00000442  00000+0  72454-4 0  9996
2 35681  97.7400 318.7961 0001218 138.3075 221.8228 14.75229979905864
